{
  "type": "FeatureCollection",
  "features": [
    {
      "type": "Feature",
      "properties": {
        "norad_id": 34648,
        "name": "IRIDIUM 33 DEB",
        "group": "iridium-33-debris",
        "lat": 9.748540425533491,
        "lon": -82.85048333524158,
        "alt_km": 903.4318240694702,
        "timestamp": "2025-12-26T03:50:12.478762+00:00",
        "meta_object_name": "IRIDIUM 33 DEB",
        "meta_object_id": "1997-051JZ",
        "meta_epoch": "2025-12-24T12:40:05.266272",
        "meta_mean_motion": 14.11825085,
        "meta_eccentricity": 0.01786115,
        "meta_inclination": 86.3902,
        "meta_ra_of_asc_node": 277.1873,
        "meta_arg_of_pericenter": 261.8681,
        "meta_mean_anomaly": 96.2208,
        "meta_ephemeris_type": 0,
        "meta_classification_type": "U",
        "meta_norad_cat_id": 34648,
        "meta_element_set_no": 999,
        "meta_rev_at_epoch": 85127,
        "meta_bstar": 0.0070051894,
        "meta_mean_motion_dot": 0.00014884,
        "meta_mean_motion_ddot": 0,
        "tle_line1": "1 34648U 97051JZ  25358.52783873  .00014884  00000+0  70052-2 0  9993",
        "tle_line2": "2 34648  86.3902 277.1873 0178611 261.8681  96.2208 14.11825085851271"
      },
      "geometry": {
        "type": "Point",
        "coordinates": [
          -82.85048333524158,
          9.748540425533491
        ]
      }
    },
    {
      "type": "Feature",
      "properties": {
        "norad_id": 34651,
        "name": "IRIDIUM 33 DEB",
        "group": "iridium-33-debris",
        "lat": 31.040798208298735,
        "lon": 137.11013220077257,
        "alt_km": 868.6134597293958,
        "timestamp": "2025-12-26T03:50:12.478772+00:00",
        "meta_object_name": "IRIDIUM 33 DEB",
        "meta_object_id": "1997-051KC",
        "meta_epoch": "2025-12-25T15:53:57.959232",
        "meta_mean_motion": 14.26027654,
        "meta_eccentricity": 0.0142018,
        "meta_inclination": 86.2827,
        "meta_ra_of_asc_node": 135.0795,
        "meta_arg_of_pericenter": 163.1805,
        "meta_mean_anomaly": 197.4168,
        "meta_ephemeris_type": 0,
        "meta_classification_type": "U",
        "meta_norad_cat_id": 34651,
        "meta_element_set_no": 999,
        "meta_rev_at_epoch": 86080,
        "meta_bstar": 0.0036817,
        "meta_mean_motion_dot": 9.797e-05,
        "meta_mean_motion_ddot": 0,
        "tle_line1": "1 34651U 97051KC  25359.66247638  .00009797  00000+0  36817-2 0  9995",
        "tle_line2": "2 34651  86.2827 135.0795 0142018 163.1805 197.4168 14.26027654860809"
      },
      "geometry": {
        "type": "Point",
        "coordinates": [
          137.11013220077257,
          31.040798208298735
        ]
      }
    },
    {
      "type": "Feature",
      "properties": {
        "norad_id": 34652,
        "name": "IRIDIUM 33 DEB",
        "group": "iridium-33-debris",
        "lat": 29.604906801476492,
        "lon": -23.885606669649267,
        "alt_km": 698.6533269232477,
        "timestamp": "2025-12-26T03:50:12.478783+00:00",
        "meta_object_name": "IRIDIUM 33 DEB",
        "meta_object_id": "1997-051KD",
        "meta_epoch": "2025-12-25T04:47:40.914240",
        "meta_mean_motion": 14.62168979,
        "meta_eccentricity": 0.0025437,
        "meta_inclination": 86.3321,
        "meta_ra_of_asc_node": 334.4529,
        "meta_arg_of_pericenter": 252.4347,
        "meta_mean_anomaly": 126.6927,
        "meta_ephemeris_type": 0,
        "meta_classification_type": "U",
        "meta_norad_cat_id": 34652,
        "meta_element_set_no": 999,
        "meta_rev_at_epoch": 88666,
        "meta_bstar": 0.0010092,
        "meta_mean_motion_dot": 5.122e-05,
        "meta_mean_motion_ddot": 0,
        "tle_line1": "1 34652U 97051KD  25359.19977910  .00005122  00000+0  10092-2 0  9992",
        "tle_line2": "2 34652  86.3321 334.4529 0025437 252.4347 126.6927 14.62168979886663"
      },
      "geometry": {
        "type": "Point",
        "coordinates": [
          -23.885606669649267,
          29.604906801476492
        ]
      }
    },
    {
      "type": "Feature",
      "properties": {
        "norad_id": 34690,
        "name": "IRIDIUM 33 DEB",
        "group": "iridium-33-debris",
        "lat": -84.0641668763021,
        "lon": -6.383788369920665,
        "alt_km": 714.0426754501641,
        "timestamp": "2025-12-26T03:50:12.478793+00:00",
        "meta_object_name": "IRIDIUM 33 DEB",
        "meta_object_id": "1997-051KM",
        "meta_epoch": "2025-12-25T20:32:22.229376",
        "meta_mean_motion": 14.55141839,
        "meta_eccentricity": 0.0009316,
        "meta_inclination": 86.3773,
        "meta_ra_of_asc_node": 31.29,
        "meta_arg_of_pericenter": 345.2776,
        "meta_mean_anomaly": 137.7731,
        "meta_ephemeris_type": 0,
        "meta_classification_type": "U",
        "meta_norad_cat_id": 34690,
        "meta_element_set_no": 999,
        "meta_rev_at_epoch": 88285,
        "meta_bstar": 0.00042559,
        "meta_mean_motion_dot": 1.859e-05,
        "meta_mean_motion_ddot": 0,
        "tle_line1": "1 34690U 97051KM  25359.85581284  .00001859  00000+0  42559-3 0  9999",
        "tle_line2": "2 34690  86.3773  31.2900 0009316 345.2776 137.7731 14.55141839882857"
      },
      "geometry": {
        "type": "Point",
        "coordinates": [
          -6.383788369920665,
          -84.0641668763021
        ]
      }
    },
    {
      "type": "Feature",
      "properties": {
        "norad_id": 34693,
        "name": "IRIDIUM 33 DEB",
        "group": "iridium-33-debris",
        "lat": -46.761996610094016,
        "lon": -66.79988890818912,
        "alt_km": 476.9303393725295,
        "timestamp": "2025-12-26T03:50:12.478803+00:00",
        "meta_object_name": "IRIDIUM 33 DEB",
        "meta_object_id": "1997-051KQ",
        "meta_epoch": "2025-12-25T03:00:18.455904",
        "meta_mean_motion": 15.31024765,
        "meta_eccentricity": 0.00096503,
        "meta_inclination": 86.304,
        "meta_ra_of_asc_node": 297.6587,
        "meta_arg_of_pericenter": 31.5304,
        "meta_mean_anomaly": 342.4375,
        "meta_ephemeris_type": 0,
        "meta_classification_type": "U",
        "meta_norad_cat_id": 34693,
        "meta_element_set_no": 999,
        "meta_rev_at_epoch": 89104,
        "meta_bstar": 0.0050386531,
        "meta_mean_motion_dot": 0.00153987,
        "meta_mean_motion_ddot": 0,
        "tle_line1": "1 34693U 97051KQ  25359.12521361  .00153987  00000+0  50387-2 0  9999",
        "tle_line2": "2 34693  86.3040 297.6587 0009650  31.5304 342.4375 15.31024765891042"
      },
      "geometry": {
        "type": "Point",
        "coordinates": [
          -66.79988890818912,
          -46.761996610094016
        ]
      }
    },
    {
      "type": "Feature",
      "properties": {
        "norad_id": 34696,
        "name": "IRIDIUM 33 DEB",
        "group": "iridium-33-debris",
        "lat": -10.72089296058139,
        "lon": -157.99997943231676,
        "alt_km": 659.5916041976998,
        "timestamp": "2025-12-26T03:50:12.478814+00:00",
        "meta_object_name": "IRIDIUM 33 DEB",
        "meta_object_id": "1997-051KT",
        "meta_epoch": "2025-12-25T02:40:19.490880",
        "meta_mean_motion": 14.65659074,
        "meta_eccentricity": 0.00738807,
        "meta_inclination": 86.1858,
        "meta_ra_of_asc_node": 21.7643,
        "meta_arg_of_pericenter": 125.9017,
        "meta_mean_anomaly": 294.9986,
        "meta_ephemeris_type": 0,
        "meta_classification_type": "U",
        "meta_norad_cat_id": 34696,
        "meta_element_set_no": 999,
        "meta_rev_at_epoch": 86854,
        "meta_bstar": 0.0042163681,
        "meta_mean_motion_dot": 0.00023946,
        "meta_mean_motion_ddot": 0,
        "tle_line1": "1 34696U 97051KT  25359.11133670  .00023946  00000+0  42164-2 0  9998",
        "tle_line2": "2 34696  86.1858  21.7643 0073880 125.9017 294.9986 14.65659074868545"
      },
      "geometry": {
        "type": "Point",
        "coordinates": [
          -157.99997943231676,
          -10.72089296058139
        ]
      }
    },
    {
      "type": "Feature",
      "properties": {
        "norad_id": 34765,
        "name": "IRIDIUM 33 DEB",
        "group": "iridium-33-debris",
        "lat": -42.487282576320894,
        "lon": 23.640127604558774,
        "alt_km": 773.9988804040786,
        "timestamp": "2025-12-26T03:50:12.478824+00:00",
        "meta_object_name": "IRIDIUM 33 DEB",
        "meta_object_id": "1997-051LJ",
        "meta_epoch": "2025-12-23T02:58:27.844896",
        "meta_mean_motion": 14.40490027,
        "meta_eccentricity": 0.00166531,
        "meta_inclination": 86.3383,
        "meta_ra_of_asc_node": 28.3053,
        "meta_arg_of_pericenter": 176.053,
        "meta_mean_anomaly": 247.6854,
        "meta_ephemeris_type": 0,
        "meta_classification_type": "U",
        "meta_norad_cat_id": 34765,
        "meta_element_set_no": 999,
        "meta_rev_at_epoch": 87763,
        "meta_bstar": 0.00035770807,
        "meta_mean_motion_dot": 1.159e-05,
        "meta_mean_motion_ddot": 0,
        "tle_line1": "1 34765U 97051LJ  25357.12393339  .00001159  00000+0  35771-3 0  9993",
        "tle_line2": "2 34765  86.3383  28.3053 0016653 176.0530 247.6854 14.40490027877630"
      },
      "geometry": {
        "type": "Point",
        "coordinates": [
          23.640127604558774,
          -42.487282576320894
        ]
      }
    }
  ]
}